From:	Horizons Ephemeris System <horizons@ssd.jpl.nasa.gov>
Sent:	Wednesday, March 4, 2020 9:58 AM
Subject:	[Horizons] MAJOR BODY #C(usr={0.,-5.,.600^G}@301)_T(301) (1/1)

 Automated mail xmit by MAIL_REQUEST, PID= 2667 Wed Mar  4 07:57:55 2020
++++++++++++++++++++++++++++++++ (part 1 of 1)  +++++++++++++++++++++++++++++++
*******************************************************************************
 Revised: July 31, 2013             Moon / (Earth)                          301
 
 GEOPHYSICAL DATA (updated 2018-Aug-15):
  Vol. mean radius, km  = 1737.53+-0.03    Mass, x10^22 kg       =    7.349
  Radius (gravity), km  = 1738.0           Surface emissivity    =    0.92
  Radius (IAU), km      = 1737.4           GM, km^3/s^2          = 4902.800066
  Density, g/cm^3       =    3.3437        GM 1-sigma, km^3/s^2  =  +-0.0001  
  V(1,0)                =   +0.21          Surface accel., m/s^2 =    1.62
  Earth/Moon mass ratio = 81.3005690769    Farside crust. thick. = ~80 - 90 km
  Mean crustal density  = 2.97+-.07 g/cm^3 Nearside crust. thick.= 58+-8 km 
  Heat flow, Apollo 15  = 3.1+-.6 mW/m^2   Mean angular diameter = 31'05.2"
  Heat flow, Apollo 17  = 2.2+-.5 mW/m^2   Sid. rot. rate, rad/s = 0.0000026617
  Geometric Albedo      = 0.12             Mean solar day        = 29.5306 d
  Obliquity to orbit    = 6.67 deg         Orbit period          = 27.321582 d
  Semi-major axis, a    = 384400 km        Eccentricity          = 0.05490
  Mean motion, rad/s    = 2.6616995x10^-6  Inclination           = 5.145 deg
  Apsidal period        = 3231.50 d        Nodal period          = 6798.38 d
                                 Perihelion  Aphelion    Mean
  Solar Constant (W/m^2)         1414+-7     1323+-7     1368+-7
  Maximum Planetary IR (W/m^2)   1314        1226        1268
  Minimum Planetary IR (W/m^2)      5.2         5.2         5.2
 *******************************************************************************
 
 
*******************************************************************************
Ephemeris / MAIL_REQUEST Wed Mar  4 07:57:54 2020 Pasadena, USA  / Horizons    
*******************************************************************************
Target body name: Moon (301)                      {source: DE431mx}
Center body name: Moon (301)                      {source: DE431mx}
Center-site name: (user defined site below)
*******************************************************************************
Start time      : A.D. 2020-Jan-01 00:00:00.0000 TDB
Stop  time      : A.D. 2039-Jan-01 00:00:00.0000 TDB
Step-size       : 10000 steps
*******************************************************************************
Center geodetic : 0.00000000,-5.0000000,0.6000000 {E-lon(deg),Lat(deg),Alt(km)}
Center cylindric: 0.00000000,1731.38639,-151.4767 {E-lon(deg),Dxy(km),Dz(km)}
Center pole/equ : IAU_MOON                        {East-longitude positive}
Center radii    : 1737.4 x 1737.4 x 1737.4 km     {Equator, meridian, pole}    
Output units    : KM-S                                                         
Output type     : GEOMETRIC cartesian states
Output format   : 3 (position, velocity, LT, range, range-rate)
Reference frame : ICRF/J2000.0                                                 
Coordinate systm: Ecliptic and Mean Equinox of Reference Epoch                 
*******************************************************************************
JDTDB
   X     Y     Z
   VX    VY    VZ
   LT    RG    RR
*******************************************************************************
$$SOE
2463270.974000002 = A.D. 2032-Feb-08 11:22:33.6002 TDB 
   4.203038288807222E+02 -1.682682605905723E+03  1.121068205352840E+02
   4.471253230072419E-03  1.112722683635314E-03 -6.177811048235288E-05
   5.797343974543884E-03  1.738000000000000E+03  1.317511500741879E-19
2463271.668000002 = A.D. 2032-Feb-09 04:01:55.2002 TDB 
   6.819648017282112E+02 -1.594898451012226E+03  1.089354862411971E+02
   4.237833553163109E-03  1.809071120493862E-03 -4.377444997923021E-05
   5.797343974543886E-03  1.738000000000001E+03  1.966286103379924E-19
2463272.362000002 = A.D. 2032-Feb-09 20:41:16.8002 TDB 
   9.263638788004416E+02 -1.466652889986307E+03  1.068796722890547E+02
   3.896710800407324E-03  2.459435077986052E-03 -2.464983949272714E-05
   5.797343974543885E-03  1.738000000000000E+03 -2.405456603627218E-19
2463273.056000002 = A.D. 2032-Feb-10 13:20:38.4002 TDB 
   1.147289736026155E+03 -1.301205576012324E+03  1.059920306602074E+02
   3.456553990342003E-03  3.047289596372315E-03 -4.893769959856244E-06
   5.797343974543884E-03  1.738000000000001E+03 -5.103485600174861E-19
2463273.750000002 = A.D. 2032-Feb-11 06:00:00.0002 TDB 
   1.339127532361261E+03 -1.102761424569621E+03  1.062953082371052E+02
   2.928547420225700E-03  3.557697553550225E-03  1.498788721294541E-05
   5.797343974543883E-03  1.738000000000000E+03 -2.545192671887720E-20
2463274.444000002 = A.D. 2032-Feb-11 22:39:21.6002 TDB 
   1.497001523505643E+03 -8.763638133124271E+02  1.077817486325301E+02
   2.326106875949664E-03  3.977688738570030E-03  3.448574565443328E-05
   5.797343974543884E-03  1.738000000000000E+03  8.656150371351471E-19
2463275.138000002 = A.D. 2032-Feb-12 15:18:43.2002 TDB 
   1.616898924159777E+03 -6.277664998368567E+02  1.104132724519009E+02
   1.664539288880861E-03  4.296589138347994E-03  5.309994962050596E-05
   5.797343974543884E-03  1.738000000000000E+03 -1.726738557790492E-19
2463275.832000002 = A.D. 2032-Feb-13 07:58:04.8002 TDB 
   1.695771878056038E+03 -3.632874990676208E+02  1.141224369503718E+02
   9.606544061420720E-04  4.506292108026172E-03  7.035306764546908E-05
   5.797343974543885E-03  1.738000000000000E+03 -2.255739387633822E-19
2463276.526000002 = A.D. 2032-Feb-14 00:37:26.4002 TDB 
   1.731614946093922E+03 -8.964861912761984E+01  1.188141555230531E+02
   2.323382535392406E-04  4.601464540195875E-03  8.580248347077259E-05
   5.797343974543885E-03  1.738000000000000E+03  1.746700853256278E-19
2463277.220000002 = A.D. 2032-Feb-14 17:16:48.0002 TDB 
   1.723516139827543E+03  1.861952804324840E+02  1.243681361870214E+02
  -5.019008531885050E-04  4.579682768691945E-03  9.905192787215710E-05
   5.797343974543885E-03  1.738000000000000E+03  1.018077068755088E-19
2463277.914000002 = A.D. 2032-Feb-15 09:56:09.6002 TDB 
   1.671680195257008E+03  4.572329806595365E+02  1.306419771080091E+02
  -1.223402278988933E-03  4.441494701921341E-03  1.097618069818239E-04
   5.797343974543885E-03  1.738000000000000E+03  1.038039364220874E-19
2463278.608000002 = A.D. 2032-Feb-16 02:35:31.2002 TDB 
   1.577423483990728E+03  7.165750632202028E+02  1.374748374267709E+02
  -1.913827121603166E-03  4.190406537460566E-03  1.176580145051706E-04
   5.797343974543885E-03  1.738000000000000E+03 -6.587557503709393E-19
2463279.302000002 = A.D. 2032-Feb-16 19:14:52.8002 TDB 
   1.443140677891408E+03  9.576290144083122E+02  1.446915843388691E+02
  -2.555624312667450E-03  3.832794318679322E-03  1.225389664024064E-04
   5.797343974543885E-03  1.738000000000000E+03  1.776644296454957E-19
2463279.996000002 = A.D. 2032-Feb-17 11:54:14.4002 TDB 
   1.272244001121128E+03  1.174266822228367E+03  1.521073036543536E+02
  -3.132476909550896E-03  3.377742507128662E-03  1.242806638521632E-04
   5.797343974543884E-03  1.738000000000000E+03  2.754796774278473E-19
2463280.690000002 = A.D. 2032-Feb-18 04:33:36.0002 TDB 
   1.069076601655764E+03  1.360980802314827E+03  1.595320517095374E+02
  -3.629717199792627E-03  2.836813611279361E-03  1.228396677606164E-04
   5.797343974543886E-03  1.738000000000000E+03  4.970611570980723E-19
2463281.384000002 = A.D. 2032-Feb-18 21:12:57.6002 TDB 
   8.388022347563681E+02  1.513023684398331E+03  1.667757219064677E+02
  -4.034700016842669E-03  2.223754682663798E-03  1.182539479470865E-04
   5.797343974543884E-03  1.738000000000000E+03  3.992459093157208E-21
2463282.078000002 = A.D. 2032-Feb-19 13:52:19.2002 TDB 
   5.872740562287262E+02  1.626529389060344E+03  1.736528992088649E+02
  -4.337124721201718E-03  1.554148115706948E-03  1.106416439198025E-04
   5.797343974543883E-03  1.738000000000000E+03 -3.293778751854697E-19
2463282.772000002 = A.D. 2032-Feb-20 06:31:40.8002 TDB 
   3.208858577105526E+02  1.698611414467443E+03  1.799875800222827E+02
  -4.529297607484404E-03  8.450156225620266E-04  1.001978342871372E-04
   5.797343974543885E-03  1.738000000000000E+03 -1.756682000989171E-19
2463283.466000002 = A.D. 2032-Feb-20 23:11:02.4002 TDB 
   4.640952562052401E+01  1.727436322094100E+03  1.856176420540024E+02
  -4.606328020120420E-03  1.143854595118492E-04  8.718945358338055E-05
   5.797343974543883E-03  1.738000000000000E+03  2.595098410552185E-20
2463284.160000002 = A.D. 2032-Feb-21 15:50:24.0002 TDB 
  -2.291771419319888E+02  1.712270444312897E+03  1.903989578448419E+02
  -4.566253156148687E-03 -6.191660751212995E-04  7.194851821880078E-05
   5.797343974543884E-03  1.738000000000000E+03 -1.497172159933953E-20
2463284.854000002 = A.D. 2032-Feb-22 08:29:45.6002 TDB 
  -4.988678789643519E+02  1.653498618697012E+03  1.942090556711571E+02
  -4.410088356211958E-03 -1.336987193266320E-03  5.486383184238116E-05
   5.797343974543885E-03  1.738000000000000E+03 -8.783410004945859E-20
2463285.548000002 = A.D. 2032-Feb-23 01:09:07.2002 TDB 
  -7.558061397923848E+02  1.552614466409390E+03  1.969502418084863E+02
  -4.141801585799586E-03 -2.020825182951770E-03  3.637134293606734E-05
   5.797343974543884E-03  1.738000000000000E+03  3.648109496372398E-19
2463286.242000002 = A.D. 2032-Feb-23 17:48:28.8002 TDB 
  -9.934594952139445E+02  1.412182456879255E+03  1.985521086559546E+02
  -3.768212739014353E-03 -2.653290898734640E-03  1.694333368339239E-05
   5.797343974543885E-03  1.738000000000000E+03  7.121548907419170E-19
